COMMENT,ORIGINATOR,NORAD_CAT_ID,OBJECT_NAME,OBJECT_TYPE,CLASSIFICATION_TYPE,INTLDES,EPOCH,EPOCH_MICROSECONDS,MEAN_MOTION,ECCENTRICITY,INCLINATION,RA_OF_ASC_NODE,ARG_OF_PERICENTER,MEAN_ANOMALY,EPHEMERIS_TYPE,ELEMENT_SET_NO,REV_AT_EPOCH,BSTAR,MEAN_MOTION_DOT,MEAN_MOTION_DDOT,FILE,TLE_LINE0,TLE_LINE1,TLE_LINE2,OBJECT_ID,OBJECT_NUMBER,SEMIMAJOR_AXIS,PERIOD,APOGEE,PERIGEE,DECAYED
"GENERATED VIA SPACETRACK.ORG API","18 SPCS","48883","SPACEBEE-100","PAYLOAD","U","21059E","2023-06-27 08:00:41","732640","15.32464883","0.0006414","97.5947","315.4178","226.1763","133.8948","0","999","11094","0.0010105","0.0003171","0","3944142","0 SPACEBEE-100","1 48883U 21059E   23178.33381635  .00031710  00000-0  10105-2 0  9992","2 48883  97.5947 315.4178 0006414 226.1763 133.8948 15.32464883110940","2021-059E","48883","6846.598","93.966","472.854","464.071","0"
"GENERATED VIA SPACETRACK.ORG API","18 SPCS","48883","SPACEBEE-100","PAYLOAD","U","21059E","2023-06-28 09:05:05","436096","15.32530384","0.0006399","97.5946","316.4896","222.4121","137.6626","0","999","11110","0.00093931","0.00029523","0","3944960","0 SPACEBEE-100","1 48883U 21059E   23179.37853514  .00029523  00000-0  93931-3 0  9995","2 48883  97.5946 316.4896 0006399 222.4121 137.6626 15.32530384111100","2021-059E","48883","6846.403","93.962","472.649","463.887","0"
"GENERATED VIA SPACETRACK.ORG API","18 SPCS","48883","SPACEBEE-100","PAYLOAD","U","21059E","2023-06-29 16:25:29","969760","15.32605306","0.0006515","97.5946","317.8291","217.9412","142.1371","0","999","11130","0.00093255","0.00029378","0","3945957","0 SPACEBEE-100","1 48883U 21059E   23180.68437465  .00029378  00000-0  93255-3 0  9991","2 48883  97.5946 317.8291 0006515 217.9412 142.1371 15.32605306111303","2021-059E","48883","6846.180","93.958","472.505","463.584","0"
"GENERATED VIA SPACETRACK.ORG API","18 SPCS","48883","SPACEBEE-100","PAYLOAD","U","21059E","2023-07-01 01:19:49","474272","15.32686482","0.0006534","97.595","319.2359","213.2721","146.811","0","999","11151","0.00082753","0.00026116","0","3946543","0 SPACEBEE-100","1 48883U 21059E   23182.05543373  .00026116  00000-0  82753-3 0  9998","2 48883  97.5950 319.2359 0006534 213.2721 146.8110 15.32686482111511","2021-059E","48883","6845.938","93.953","472.276","463.330","0"
"GENERATED VIA SPACETRACK.ORG API","18 SPCS","48883","SPACEBEE-100","PAYLOAD","U","21059E","2023-07-02 08:40:02","861472","15.32750117","0.0006578","97.5954","320.5755","209.3207","150.7667","0","999","11171","0.00073266","0.0002315","0","3947643","0 SPACEBEE-100","1 48883U 21059E   23183.36114423  .00023150  00000-0  73266-3 0  9997","2 48883  97.5954 320.5755 0006578 209.3207 150.7667 15.32750117111713","2021-059E","48883","6845.748","93.949","472.117","463.110","0"
"GENERATED VIA SPACETRACK.ORG API","18 SPCS","48883","SPACEBEE-100","PAYLOAD","U","21059E","2023-07-03 14:26:11","16096","15.32817352","0.0006687","97.596","321.8483","205.3869","154.7045","0","999","11190","0.00083195","0.00026366","0","3948810","0 SPACEBEE-100","1 48883U 21059E   23184.60151639  .00026366  00000-0  83195-3 0  9999","2 48883  97.5960 321.8483 0006687 205.3869 154.7045 15.32817352111903","2021-059E","48883","6845.548","93.945","471.991","462.836","0"
"GENERATED VIA SPACETRACK.ORG API","18 SPCS","48883","SPACEBEE-100","PAYLOAD","U","21059E","2023-07-04 21:46:14","561472","15.328899","0.0006743","97.5965","323.1885","200.6891","159.4078","0","999","11210","0.00087057","0.00027661","0","3949861","0 SPACEBEE-100","1 48883U 21059E   23185.90711298  .00027661  00000-0  87057-3 0  9996","2 48883  97.5965 323.1885 0006743 200.6891 159.4078 15.32889900112104","2021-059E","48883","6845.332","93.940","471.813","462.581","0"
"GENERATED VIA SPACETRACK.ORG API","18 SPCS","48883","SPACEBEE-100","PAYLOAD","U","21059E","2023-07-06 08:14:12","734880","15.32962112","0.0006766","97.5967","324.6632","196.6071","163.495","0","999","11232","0.00088696","0.0002825","0","3951081","0 SPACEBEE-100","1 48883U 21059E   23187.34320295  .00028250  00000-0  88696-3 0  9994","2 48883  97.5967 324.6632 0006766 196.6071 163.4950 15.32962112112326","2021-059E","48883","6845.117","93.936","471.614","462.351","0"
"GENERATED VIA SPACETRACK.ORG API","18 SPCS","48883","SPACEBEE-100","PAYLOAD","U","21059E","2023-07-07 21:50:03","125760","15.33063859","0.0006865","97.5967","326.2716","191.2117","168.8972","0","999","11256","0.0010974","0.00035116","0","3952453","0 SPACEBEE-100","1 48883U 21059E   23188.90975840  .00035116  00000-0  10974-2 0  9991","2 48883  97.5967 326.2716 0006865 191.2117 168.8972 15.33063859112569","2021-059E","48883","6844.814","93.930","471.378","461.980","0"
"GENERATED VIA SPACETRACK.ORG API","18 SPCS","48883","SPACEBEE-100","PAYLOAD","U","21059E","2023-07-08 22:53:51","806976","15.33125198","0.000689","97.5963","327.3443","188.09","172.0232","0","999","11272","0.00095043","0.00030442","0","3953395","0 SPACEBEE-100","1 48883U 21059E   23189.95407184  .00030442  00000-0  95043-3 0  9996","2 48883  97.5963 327.3443 0006890 188.0900 172.0232 15.33125198112725","2021-059E","48883","6844.632","93.926","471.213","461.781","0"
"GENERATED VIA SPACETRACK.ORG API","18 SPCS","48883","SPACEBEE-100","PAYLOAD","U","21059E","2023-07-10 03:05:35","55744","15.33185619","0.0006901","97.5961","328.5511","184.4828","175.6353","0","999","11290","0.00085663","0.00027471","0","3954213","0 SPACEBEE-100","1 48883U 21059E   23191.12887796  .00027471  00000-0  85663-3 0  9994","2 48883  97.5961 328.5511 0006901 184.4828 175.6353 15.33185619112901","2021-059E","48883","6844.452","93.922","471.040","461.594","0"
"GENERATED VIA SPACETRACK.ORG API","18 SPCS","48883","SPACEBEE-100","PAYLOAD","U","21059E","2023-07-11 08:51:12","772512","15.33255732","0.0006953","97.5958","329.8249","180.6929","179.4305","0","999","11309","0.000854","0.00027447","0","3955233","0 SPACEBEE-100","1 48883U 21059E   23192.36889783  .00027447  00000-0  85400-3 0  9991","2 48883  97.5958 329.8249 0006953 180.6929 179.4305 15.33255732113090","2021-059E","48883","6844.243","93.918","470.867","461.350","0"
"GENERATED VIA SPACETRACK.ORG API","18 SPCS","48883","SPACEBEE-100","PAYLOAD","U","21059E","2023-07-12 06:46:52","974048","15.33315796","0.0006958","97.5959","330.7634","178.0052","182.1218","0","999","11323","0.00099146","0.00031958","0","3956108","0 SPACEBEE-100","1 48883U 21059E   23193.28255757  .00031958  00000-0  99146-3 0  9995","2 48883  97.5959 330.7634 0006958 178.0052 182.1218 15.33315796113230","2021-059E","48883","6844.065","93.914","470.692","461.168","0"
"GENERATED VIA SPACETRACK.ORG API","18 SPCS","48883","SPACEBEE-100","PAYLOAD","U","21059E","2023-07-13 15:40:17","306976","15.33407873","0.0006967","97.5959","332.1711","173.7158","186.4172","0","999","11344","0.00096955","0.00031338","0","3956903","0 SPACEBEE-100","1 48883U 21059E   23194.65297809  .00031338  00000-0  96955-3 0  9998","2 48883  97.5959 332.1711 0006967 173.7158 186.4172 15.33407873113448","2021-059E","48883","6843.791","93.908","470.424","460.888","0"
"GENERATED VIA SPACETRACK.ORG API","18 SPCS","48883","SPACEBEE-100","PAYLOAD","U","21059E","2023-07-14 22:59:36","758112","15.33503314","0.000698","97.596","333.5118","169.9566","190.1816","0","999","11364","0.0011631","0.00037755","0","3958238","0 SPACEBEE-100","1 48883U 21059E   23195.95806433  .00037755  00000-0  11631-2 0  9997","2 48883  97.5960 333.5118 0006980 169.9566 190.1816 15.33503314113647","2021-059E","48883","6843.507","93.903","470.148","460.595","0"
"GENERATED VIA SPACETRACK.ORG API","18 SPCS","48883","SPACEBEE-100","PAYLOAD","U","21059E","2023-07-16 07:52:46","577568","15.33596739","0.0006981","97.5964","334.9196","165.7839","194.3601","0","999","11385","0.00093706","0.00030462","0","3959402","0 SPACEBEE-100","1 48883U 21059E   23197.32831687  .00030462  00000-0  93706-3 0  9991","2 48883  97.5964 334.9196 0006981 165.7839 194.3601 15.33596739113854","2021-059E","48883","6843.229","93.897","469.871","460.316","0"
"GENERATED VIA SPACETRACK.ORG API","18 SPCS","48883","SPACEBEE-100","PAYLOAD","U","21059E","2023-07-17 07:22:06","417408","15.33668703","0.0006934","97.5969","335.9253","162.4425","197.7058","0","999","11400","0.0012411","0.00040517","0","3960258","0 SPACEBEE-100","1 48883U 21059E   23198.30701872  .00040517  00000-0  12411-2 0  9997","2 48883  97.5969 335.9253 0006934 162.4425 197.7058 15.33668703114009","2021-059E","48883","6843.015","93.893","469.625","460.135","0"
"GENERATED VIA SPACETRACK.ORG API","18 SPCS","48883","SPACEBEE-100","PAYLOAD","U","21059E","2023-07-18 08:25:18","939360","15.33756191","0.0006917","97.5971","336.9985","159.5778","200.5742","0","999","11416","0.0013996","0.0004586","0","3961147","0 SPACEBEE-100","1 48883U 21059E   23199.35091365  .00045860  00000-0  13996-2 0  9997","2 48883  97.5971 336.9985 0006917 159.5778 200.5742 15.33756191114163","2021-059E","48883","6842.754","93.887","469.353","459.886","0"
"GENERATED VIA SPACETRACK.ORG API","18 SPCS","48883","SPACEBEE-100","PAYLOAD","U","21059E","2023-07-18 19:22:56","576064","15.33788334","0.0006887","97.5973","337.468","158.3116","201.8419","0","999","11423","0.0011529","0.0003776","0","3961601","0 SPACEBEE-100","1 48883U 21059E   23199.80759926  .00037760  00000-0  11529-2 0  9991","2 48883  97.5973 337.4680 0006887 158.3116 201.8419 15.33788334114239","2021-059E","48883","6842.659","93.885","469.236","459.811","0"
"GENERATED VIA SPACETRACK.ORG API","18 SPCS","48883","SPACEBEE-100","PAYLOAD","U","21059E","2023-07-19 20:26:02","289696","15.33861793","0.0006857","97.5979","338.5414","154.76","205.3978","0","999","11439","0.0010667","0.00034999","0","3962515","0 SPACEBEE-100","1 48883U 21059E   23200.85141539  .00034999  00000-0  10667-2 0  9997","2 48883  97.5979 338.5414 0006857 154.7600 205.3978 15.33861793114394","2021-059E","48883","6842.440","93.881","468.997","459.614","0"
